QIANFAN-57              
1 62787U 25016C   25356.52762229  .00000173  00000+0  25000-3 0  9990
2 62787  88.9788 102.1905 0002501 114.3885 245.7528 13.50979460 48522
QIANFAN-58              
1 62788U 25016D   25356.57285754  .00000161  00000+0  23140-3 0  9999
2 62788  88.9758 102.0144 0012339 318.4219  41.5993 13.50981225 48577
QIANFAN-59              
1 62789U 25016E   25356.52344126  .00000172  00000+0  24737-3 0  9999
2 62789  88.9781 102.0955 0012779 322.7739  37.2526 13.50982815 48566
QIANFAN-60              
1 62790U 25016F   25356.55647129  .00000067  00000+0  85451-4 0  9997
2 62790  88.9762 102.0617 0014201 318.3102  41.6966 13.50986232 48552
QIANFAN-61              
1 62791U 25016G   25356.51521979  .00000168  00000+0  24138-3 0  9994
2 62791  88.9829 102.2356 0013176 318.0024  42.0116 13.50983091 48562
QIANFAN-62              
1 62792U 25016H   25356.51935740  .00000172  00000+0  24840-3 0  9995
2 62792  88.9776 102.0983 0014565 318.0698  41.9336 13.50979687 48555
QIANFAN-63              
1 62793U 25016J   25356.54402198  .00000178  00000+0  25689-3 0  9993
2 62793  88.9783 102.0479 0014703 323.8337  36.1819 13.50986436 48598
QIANFAN-64              
1 62794U 25016K   25356.51110121  .00000176  00000+0  25364-3 0  9991
2 62794  88.9769 102.0241 0012528 316.6754  43.3411 13.50981453 48587
